STARLINK-30416          
1 57847U 23141H   26068.86578414  .00007052  00000+0  24998-3 0  9995
2 57847  53.1589 283.3602 0000697  53.3687 306.7378 15.30199446140351
FLOCK 4G-5              
1 62663U 25009BG  26068.45638436  .00011278  00000+0  40688-3 0  9997
2 62663  97.4058 151.2478 0002094 314.5072  45.5996 15.28679529 63699
